{
  "대한민국": { "nameEn": "South Korea", "lat": 37.5665, "lng": 126.9780 },
  "일본": { "nameEn": "Japan", "lat": 35.6895, "lng": 139.6917 },
  "미국": { "nameEn": "United States", "lat": 38.89511, "lng": -77.03637 },
  "중국": { "nameEn": "China", "lat": 39.9042, "lng": 116.4074 },
  "영국": { "nameEn": "United Kingdom", "lat": 51.5074, "lng": -0.1278 },
  "프랑스": { "nameEn": "France", "lat": 48.8566, "lng": 2.3522 },
  "독일": { "nameEn": "Germany", "lat": 52.52, "lng": 13.405 },
  "캐나다": { "nameEn": "Canada", "lat": 45.4215, "lng": -75.6997 },
  "호주": { "nameEn": "Australia", "lat": -35.2809, "lng": 149.13 },
  "러시아": { "nameEn": "Russia", "lat": 55.7558, "lng": 37.6173 },
  "브라질": { "nameEn": "Brazil", "lat": -15.793889, "lng": -47.882778 },
  "인도": { "nameEn": "India", "lat": 28.6139, "lng": 77.209 },
  "이탈리아": { "nameEn": "Italy", "lat": 41.9028, "lng": 12.4964 },
  "스페인": { "nameEn": "Spain", "lat": 40.4168, "lng": -3.7038 },
  "멕시코": { "nameEn": "Mexico", "lat": 19.4326, "lng": -99.1332 },
  "터키": { "nameEn": "Turkey", "lat": 39.9334, "lng": 32.8597 },
  "남아프리카 공화국": { "nameEn": "South Africa", "lat": -25.7461, "lng": 28.1881 },
  "이집트": { "nameEn": "Egypt", "lat": 30.0444, "lng": 31.2357 },
  "아르헨티나": { "nameEn": "Argentina", "lat": -34.6037, "lng": -58.3816 },
  "스웨덴": { "nameEn": "Sweden", "lat": 59.3293, "lng": 18.0686 },
  "노르웨이": { "nameEn": "Norway", "lat": 59.9139, "lng": 10.7522 },
  "핀란드": { "nameEn": "Finland", "lat": 60.1699, "lng": 24.9384 },
  "덴마크": { "nameEn": "Denmark", "lat": 55.6761, "lng": 12.5683 },
  "폴란드": { "nameEn": "Poland", "lat": 52.2297, "lng": 21.0122 },
  "체코": { "nameEn": "Czech Republic", "lat": 50.0755, "lng": 14.4378 },
  "헝가리": { "nameEn": "Hungary", "lat": 47.4979, "lng": 19.0402 },
  "오스트리아": { "nameEn": "Austria", "lat": 48.2082, "lng": 16.3738 },
  "스위스": { "nameEn": "Switzerland", "lat": 46.948, "lng": 7.4474 },
  "포르투갈": { "nameEn": "Portugal", "lat": 38.7223, "lng": -9.1393 },
  "그리스": { "nameEn": "Greece", "lat": 37.9838, "lng": 23.7275 },
  "네덜란드": { "nameEn": "Netherlands", "lat": 52.3676, "lng": 4.9041 },
  "벨기에": { "nameEn": "Belgium", "lat": 50.8503, "lng": 4.3517 },
  "아일랜드": { "nameEn": "Ireland", "lat": 53.3498, "lng": -6.2603 },
  "뉴질랜드": { "nameEn": "New Zealand", "lat": -41.2865, "lng": 174.7762 },
  "싱가포르": { "nameEn": "Singapore", "lat": 1.3521, "lng": 103.8198 },
  "말레이시아": { "nameEn": "Malaysia", "lat": 3.139, "lng": 101.6869 },
  "태국": { "nameEn": "Thailand", "lat": 13.7563, "lng": 100.5018 },
  "베트남": { "nameEn": "Vietnam", "lat": 21.0285, "lng": 105.8542 },
  "필리핀": { "nameEn": "Philippines", "lat": 14.5995, "lng": 120.9842 },
  "인도네시아": { "nameEn": "Indonesia", "lat": -6.2088, "lng": 106.8456 },
  "파키스탄": { "nameEn": "Pakistan", "lat": 33.6844, "lng": 73.0479 },
  "방글라데시": { "nameEn": "Bangladesh", "lat": 23.8103, "lng": 90.4125 },
  "이스라엘": { "nameEn": "Israel", "lat": 31.7683, "lng": 35.2137 },
  "이란": { "nameEn": "Iran", "lat": 35.6892, "lng": 51.389 },
  "이라크": { "nameEn": "Iraq", "lat": 33.3152, "lng": 44.3661 },
  "쿠웨이트": { "nameEn": "Kuwait", "lat": 29.3759, "lng": 47.9774 },
  "카타르": { "nameEn": "Qatar", "lat": 25.2854, "lng": 51.531 },
  "아랍에미리트": { "nameEn": "United Arab Emirates", "lat": 24.4539, "lng": 54.3773 },
  "요르단": { "nameEn": "Jordan", "lat": 31.9539, "lng": 35.9106 },
  "레바논": { "nameEn": "Lebanon", "lat": 33.8938, "lng": 35.5018 },
  "시리아": { "nameEn": "Syria", "lat": 33.5138, "lng": 36.2765 },
  "우크라이나": { "nameEn": "Ukraine", "lat": 50.4501, "lng": 30.5234 },
  "벨라루스": { "nameEn": "Belarus", "lat": 53.9045, "lng": 27.5615 },
  "루마니아": { "nameEn": "Romania", "lat": 44.4268, "lng": 26.1025 },
  "불가리아": { "nameEn": "Bulgaria", "lat": 42.6977, "lng": 23.3219 },
  "크로아티아": { "nameEn": "Croatia", "lat": 45.815, "lng": 15.9819 },
  "슬로바키아": { "nameEn": "Slovakia", "lat": 48.1486, "lng": 17.1077 },
  "슬로베니아": { "nameEn": "Slovenia", "lat": 46.0569, "lng": 14.5058 },
  "세르비아": { "nameEn": "Serbia", "lat": 44.7866, "lng": 20.4489 },
  "몬테네그로": { "nameEn": "Montenegro", "lat": 42.4304, "lng": 19.2594 },
  "보스니아 헤르체고비나": { "nameEn": "Bosnia and Herzegovina", "lat": 43.8563, "lng": 18.4131 },
  "마케도니아": { "nameEn": "North Macedonia", "lat": 41.9973, "lng": 21.428 },
  "알바니아": { "nameEn": "Albania", "lat": 41.3275, "lng": 19.8187 },
  "에스토니아": { "nameEn": "Estonia", "lat": 59.437, "lng": 24.7536 },
  "라트비아": { "nameEn": "Latvia", "lat": 56.9496, "lng": 24.1052 },
  "리투아니아": { "nameEn": "Lithuania", "lat": 54.6872, "lng": 25.2797 },
  "몰도바": { "nameEn": "Moldova", "lat": 47.0105, "lng": 28.8638 },
  "조지아": { "nameEn": "Georgia", "lat": 41.7151, "lng": 44.8271 },
  "아르메니아": { "nameEn": "Armenia", "lat": 40.1792, "lng": 44.4991 },
  "아제르바이잔": { "nameEn": "Azerbaijan", "lat": 40.4093, "lng": 49.8671 },
  "우즈베키스탄": { "nameEn": "Uzbekistan", "lat": 41.2995, "lng": 69.2401 },
  "카자흐스탄": { "nameEn": "Kazakhstan", "lat": 51.1694, "lng": 71.4491 },
  "키르기스스탄": { "nameEn": "Kyrgyzstan", "lat": 42.8746, "lng": 74.5698 },
  "타지키스탄": { "nameEn": "Tajikistan", "lat": 38.5598, "lng": 68.787 },
  "투르크메니스탄": { "nameEn": "Turkmenistan", "lat": 37.9601, "lng": 58.3261 },
  "몽골": { "nameEn": "Mongolia", "lat": 47.8864, "lng": 106.9057 },
  "캄보디아": { "nameEn": "Cambodia", "lat": 11.5564, "lng": 104.9282 },
  "라오스": { "nameEn": "Laos", "lat": 17.9757, "lng": 102.6331 },
  "미얀마": { "nameEn": "Myanmar", "lat": 19.7633, "lng": 96.0785 },
  "네팔": { "nameEn": "Nepal", "lat": 27.7172, "lng": 85.324 },
  "스리랑카": { "nameEn": "Sri Lanka", "lat": 6.9271, "lng": 79.8612 },
  "몰디브": { "nameEn": "Maldives", "lat": 4.1755, "lng": 73.5093 },
  "아프가니스탄": { "nameEn": "Afghanistan", "lat": 34.5553, "lng": 69.2075 },
  "사우디아라비아": { "nameEn": "Saudi Arabia", "lat": 24.7136, "lng": 46.6753 },
  "예멘": { "nameEn": "Yemen", "lat": 15.3694, "lng": 44.191 },
  "오만": { "nameEn": "Oman", "lat": 23.588, "lng": 58.3829 },
  "바레인": { "nameEn": "Bahrain", "lat": 26.0667, "lng": 50.5577 },
  "팔레스타인": { "nameEn": "Palestine", "lat": 31.9522, "lng": 35.2332 },
  "튀니지": { "nameEn": "Tunisia", "lat": 36.8065, "lng": 10.1815 },
  "알제리": { "nameEn": "Algeria", "lat": 36.7538, "lng": 3.0588 },
  "모로코": { "nameEn": "Morocco", "lat": 33.5731, "lng": -7.5898 },
  "리비아": { "nameEn": "Libya", "lat": 32.8872, "lng": 13.1913 },
  "수단": { "nameEn": "Sudan", "lat": 15.5007, "lng": 32.5599 },
  "에티오피아": { "nameEn": "Ethiopia", "lat": 9.03, "lng": 38.74 },
  "케냐": { "nameEn": "Kenya", "lat": -1.2921, "lng": 36.8219 },
  "탄자니아": { "nameEn": "Tanzania", "lat": -6.7924, "lng": 39.2083 },
  "우간다": { "nameEn": "Uganda", "lat": 0.3476, "lng": 32.5825 },
  "르완다": { "nameEn": "Rwanda", "lat": -1.9706, "lng": 30.1044 },
  "부룬디": { "nameEn": "Burundi", "lat": -3.3731, "lng": 29.9189 },
  "콩고": { "nameEn": "Congo", "lat": -4.2634, "lng": 15.2429 },
  "가나": { "nameEn": "Ghana", "lat": 5.6037, "lng": -0.187 },
  "나이지리아": { "nameEn": "Nigeria", "lat": 9.0579, "lng": 7.4951 },
  "카메룬": { "nameEn": "Cameroon", "lat": 3.848, "lng": 11.5021 },
  "앙골라": { "nameEn": "Angola", "lat": -8.839, "lng": 13.2894 },
  "잠비아": { "nameEn": "Zambia", "lat": -15.3875, "lng": 28.3228 },
  "짐바브웨": { "nameEn": "Zimbabwe", "lat": -17.8292, "lng": 31.0522 },
  "모잠비크": { "nameEn": "Mozambique", "lat": -25.9692, "lng": 32.5732 },
  "마다가스카르": { "nameEn": "Madagascar", "lat": -18.8792, "lng": 47.5079 },
  "세네갈": { "nameEn": "Senegal", "lat": 14.6928, "lng": -17.4467 },
  "코트디부아르": { "nameEn": "Ivory Coast", "lat": 5.3599, "lng": -4.0083 },
  "라이베리아": { "nameEn": "Liberia", "lat": 6.3156, "lng": -10.8074 },
  "시에라리온": { "nameEn": "Sierra Leone", "lat": 8.4657, "lng": -13.2317 },
  "기니": { "nameEn": "Guinea", "lat": 9.6412, "lng": -13.5784 },
  "가봉": { "nameEn": "Gabon", "lat": 0.4162, "lng": 9.4673 },
  "콩고민주공화국": { "nameEn": "Democratic Republic of the Congo", "lat": -4.4419, "lng": 15.2663 },
  "에콰도르": { "nameEn": "Ecuador", "lat": -0.1807, "lng": -78.4678 },
  "콜롬비아": { "nameEn": "Colombia", "lat": 4.711, "lng": -74.0721 },
  "베네수엘라": { "nameEn": "Venezuela", "lat": 10.4806, "lng": -66.9036 },
  "페루": { "nameEn": "Peru", "lat": -12.0464, "lng": -77.0428 },
  "칠레": { "nameEn": "Chile", "lat": -33.4489, "lng": -70.6693 },
  "볼리비아": { "nameEn": "Bolivia", "lat": -16.5000, "lng": -68.1500 },
  "파라과이": { "nameEn": "Paraguay", "lat": -25.2637, "lng": -57.5759 },
  "우루과이": { "nameEn": "Uruguay", "lat": -34.9011, "lng": -56.1645 },
  "쿠바": { "nameEn": "Cuba", "lat": 23.1136, "lng": -82.3666 },
  "도미니카공화국": { "nameEn": "Dominican Republic", "lat": 18.4861, "lng": -69.9312 },
  "자메이카": { "nameEn": "Jamaica", "lat": 18.1096, "lng": -77.2975 },
  "아이티": { "nameEn": "Haiti", "lat": 18.5944, "lng": -72.3074 },
  "바하마": { "nameEn": "Bahamas", "lat": 25.0343, "lng": -77.3963 },
  "트리니다드토바고": { "nameEn": "Trinidad and Tobago", "lat": 10.6918, "lng": -61.2225 },
  "코스타리카": { "nameEn": "Costa Rica", "lat": 9.7489, "lng": -83.7534 },
  "파나마": { "nameEn": "Panama", "lat": 8.9824, "lng": -79.5199 },
  "엘살바도르": { "nameEn": "El Salvador", "lat": 13.6929, "lng": -89.2182 },
  "온두라스": { "nameEn": "Honduras", "lat": 14.0723, "lng": -87.1921 },
  "과테말라": { "nameEn": "Guatemala", "lat": 14.6349, "lng": -90.5069 },
  "니카라과": { "nameEn": "Nicaragua", "lat": 12.1364, "lng": -86.2514 },
  "벨리즈": { "nameEn": "Belize", "lat": 17.5046, "lng": -88.1962 }
} 